HST                     
1 20580U 90037B   23150.06744576  .00003755  00000+0  19615-3 0  9998
2 20580  28.4707  28.5575 0002360 177.0674 298.0620 15.13136081618719
POLAR                   
1 23802U 96013A   23149.59053804  .00000213  00000+0  00000+0 0  9991
2 23802  78.8888 238.2812 5766404 246.9769  44.1028  1.29847357130385
SWAS                    
1 25560U 98071A   23150.43530517  .00001735  00000+0  15920-3 0  9997
2 25560  69.8969 190.8548 0006994 182.2730 177.8397 14.96834854329900
CXO                     
1 25867U 99040B   23152.09328780  .00000642  00000+0  00000+0 0  9990
2 25867  37.7296 198.8693 9049731 260.7279   0.0177  0.37815840 24270
XMM-NEWTON              
1 25989U 99066A   23152.52300028 -.00000001  00000+0  00000+0 0  9996
2 25989  69.1362 298.6921 5568272  82.5987   0.1570  0.50134510 17429
TERRA                   
1 25994U 99068A   23150.58626403  .00000463  00000+0  10768-3 0  9993
2 25994  98.0947 219.4058 0002897 111.6420  24.7851 14.59234974247095
CLUSTER II-FM7 (SAMBA)  
1 26410U 00041A   23149.88457644  .00000768  00000+0  00000+0 0  9992
2 26410 136.0315 351.7123 6476009 205.5100   0.2499  0.44208542 15358
CLUSTER II-FM6 (SALSA)  
1 26411U 00041B   23152.13667895  .00001275  00000+0  00000+0 0  9990
2 26411 140.7106 359.7479 8168295 213.4973   0.2959  0.44223981 15427
CLUSTER II-FM5 (RUMBA)  
1 26463U 00045A   23152.15038184  .00001337  00000+0  00000+0 0  9995
2 26463 143.8687 359.6661 7663314 214.1792   0.2467  0.44223357 15298
CLUSTER II-FM8 (TANGO)  
1 26464U 00045B   23149.88436813  .00000768  00000+0  00000+0 0  9990
2 26464 136.0356 351.7035 6474054 205.5253   0.2202  0.44221065 15369
ODIN                    
1 26702U 01007A   23150.00226700  .00005255  00000+0  29209-3 0  9994
2 26702  97.5045 163.9307 0010642 163.0878 197.0711 15.14074509218625
TIMED                   
1 26998U 01055B   23150.45109639  .00001192  00000+0  12839-3 0  9991
2 26998  74.0713 307.9071 0000421 108.9917 251.1311 14.89710236164654
INTEGRAL                
1 27540U 02048A   23150.58594958  .00000516  00000+0  00000+0 0  9996
2 27540  83.5966  39.7314 8777455 292.0041 322.1086  0.37575708 22441
CORIOLIS                
1 27640U 03001A   23150.45782775  .00000110  00000+0  73321-4 0  9990
2 27640  98.7145 158.8468 0014285 174.5492 185.5842 14.19261535 56200
SORCE                   
1 27651U 03004A   23150.24043423  .00002611  00000+0  26662-3 0  9995
2 27651  39.9944  78.9041 0019351  30.9287 329.2639 14.91900385104838
MOST                    
1 27843U 03031D   23150.48415318  .00000083  00000+0  58901-4 0  9993
2 27843  98.7065 158.0093 0009154 222.0039 138.0436 14.20796624 32533
SCISAT 1                
1 27858U 03036A   23150.31742516  .00000542  00000+0  79704-4 0  9993
2 27858  73.9327 218.9743 0007646 187.4553 172.6509 14.78200299 66670
SWIFT                   
1 28485U 04047A   23150.02404158  .00006726  00000+0  36652-3 0  9992
2 28485  20.5578  31.3229 0009884  26.0353 334.0578 15.10670288 15862
CLOUDSAT                
1 29107U 06016A   23150.47709236  .00000374  00000+0  80819-4 0  9994
2 29107  98.3736 119.9792 0001916 327.2287  32.8796 14.64061469909782
CALIPSO                 
1 29108U 06016B   23150.47674179  .00001192  00000+0  23659-3 0  9999
2 29108  98.3739 119.4652 0001544  84.6600 275.4778 14.64080376909778
HINODE (SOLAR-B)        
1 29479U 06041A   23150.46003332  .00000730  00000+0  14353-3 0  9992
2 29479  98.1059 166.0704 0017559 208.1609 151.8646 14.65440950891560
SJ-6C                   
1 29505U 06046A   23150.51193214  .00002649  00000+0  22516-3 0  9993
2 29505  97.7499 174.2822 0005309  48.7391 311.4288 14.98714198904487
SJ-6D                   
1 29506U 06046B   23150.50945476  .00001454  00000+0  13762-3 0  9994
2 29506  97.7708 173.8847 0003279 119.8624 240.2923 14.95189677903968
AGILE                   
1 31135U 07013A   23150.20532788  .00026845  00000+0  39539-3 0  9996
2 31135   2.4700 356.0077 0007066 205.2403 154.7306 15.52507089530614
AIM                     
1 31304U 07015A   23150.39783239  .00015662  00000+0  55489-3 0  9992
2 31304  97.8699  90.1183 0001701 210.1162 149.9979 15.29208031883968
FGRST (GLAST)           
1 33053U 08029A   23150.57137628  .00002690  00000+0  12781-3 0  9991
2 33053  25.5837 317.6441 0011030 246.5260 113.4116 15.13992550826320
WISE                    
1 36119U 09071A   23150.09481810  .00012449  00000+0  29841-3 0  9995
2 36119  97.1969 183.2268 0003829 119.2911 240.8719 15.41534441748731
SDO                     
1 36395U 10005A   23150.37721313 -.00000039  00000+0  00000+0 0  9991
2 36395  32.3423 103.6462 0001457 250.2547 287.6555  1.00271683 48894
CRYOSAT 2               
1 36508U 10013A   23150.54112033  .00000147  00000+0  35728-4 0  9997
2 36508  92.0214   8.1441 0005596 126.3889 233.7835 14.51908569696495
X-SAT                   
1 37389U 11015C   23150.43327225  .00000105  00000+0  62867-4 0  9995
2 37389  98.3023 170.4658 0014505  19.4881 340.6851 14.24527893629070
GCOM-W1 (SHIZUKU)       
1 38337U 12025A   23150.42844412  .00000572  00000+0  13688-3 0  9996
2 38337  98.2011  90.9926 0000765  82.8135  29.2163 14.57169199586843
NUSTAR                  
1 38358U 12031A   23150.43095216  .00003587  00000+0  27495-3 0  9997
2 38358   6.0282 355.3249 0011493 312.7328  47.1834 14.91856937596709
NEOSSAT                 
1 39089U 13009D   23150.47958423  .00000196  00000+0  84056-4 0  9997
2 39089  98.4103 342.9141 0010584 330.8909  29.1686 14.34867595536974
BRITE-AUSTRIA           
1 39091U 13009F   23150.50629596  .00000198  00000+0  83494-4 0  9997
2 39091  98.3922 343.5774 0009768 330.3422  29.7209 14.35481032537215
IRIS                    
1 39197U 13033A   23150.49710619  .00000975  00000+0  13425-3 0  9995
2 39197  97.9701 338.5239 0026654 348.8584  11.2035 14.80312130535299
HISAKI (SPRINT-A)       
1 39253U 13049A   23150.40149747  .00000163  00000+0  13477-3 0  9990
2 39253  29.7187 121.5778 0136854 348.7717  10.9818 13.55325025480205
CASSIOPE                
1 39265U 13055A   23150.48178598  .00013440  00000+0  32721-3 0  9999
2 39265  80.9605 256.3193 0571569   1.4692 358.8009 14.51385292502414
STSAT-3                 
1 39422U 13066G   23150.48531334  .00001465  00000+0  14868-3 0  9993
2 39422  97.4853 142.5350 0021202 199.3494 160.6923 14.92153023517554
SWARM B                 
1 39451U 13067A   23150.49280928  .00003076  00000+0  12994-3 0  9995
2 39451  87.7464 317.3883 0003095  91.3362 268.8239 15.22878558513697
SWARM A                 
1 39452U 13067B   23150.52210767  .00004572  00000+0  17121-3 0  9993
2 39452  87.3540 100.3079 0003602  92.4923 267.6738 15.27016907535125
SWARM C                 
1 39453U 13067C   23150.52179134  .00004589  00000+0  17247-3 0  9993
2 39453  87.3392  99.0713 0003657  92.6554 267.5112 15.26896776535081
BRITE-CA1 (TORONTO)     
1 40020U 14033L   23150.36609342  .00000899  00000+0  15736-3 0  9991
2 40020  97.8237 297.7669 0084292 236.5254 122.7874 14.67934754478530
OCO 2                   
1 40059U 14035A   23150.54141931  .00000507  00000+0  12249-3 0  9992
2 40059  98.2004  91.8477 0001819  89.9610 270.1797 14.57124539473874
BRITE-PL2 (HEWELIUSZ)   
1 40119U 14049B   23150.27114707  .00001615  00000+0  18833-3 0  9991
2 40119  97.8803 247.5386 0016722 181.5817 178.5348 14.86518563475500
RESURS P2               
1 40360U 14087A   23150.49628088  .00009241  00000+0  20912-3 0  9991
2 40360  97.1809 234.2351 0006331 271.4201  88.6322 15.43334917470100
MMS 1                   
1 40482U 15011A   23147.54444373 -.00000226  00000+0  00000+0 0  9996
2 40482  29.0962  66.3297 9103896  94.0271 112.1081  0.28566614 14287
MMS 2                   
1 40483U 15011B   23146.74297731 -.00000329  00000+0  00000+0 0  9996
2 40483  29.0911  66.4196 9104157  93.9247  29.7307  0.28558840 14346
MMS 3                   
1 40484U 15011C   23146.74297731 -.00000329  00000+0  00000+0 0  9997
2 40484  29.0816  66.4288 9104371  93.9176  29.7119  0.28541955 14027
MMS 4                   
1 40485U 15011D   23146.74297731 -.00000329  00000+0  00000+0 0  9998
2 40485  29.0887  66.4221 9104841  93.9300  29.7155  0.28559034 14234
ASTROSAT                
1 40930U 15052A   23150.28429937  .00001559  00000+0  12541-3 0  9999
2 40930   5.9959 223.5240 0008309  24.2004 335.8513 14.77540073414516
DAMPE                   
1 41173U 15078A   23150.53061919  .00001292  00000+0  53753-4 0  9992
2 41173  97.4042 141.8235 0014873  61.1903 299.0827 15.25503691414464
PISAT                   
1 41784U 16059B   23150.09133654  .00000898  00000+0  17626-3 0  9996
2 41784  97.8705 184.2038 0032131 150.1848 210.1195 14.64660549356418
HXMT (HUIYAN)           
1 42758U 17034A   23150.52196405  .00004828  00000+0  29057-3 0  9991
2 42758  43.0153 236.3603 0006893 258.0128 101.9945 15.11785425328684
FLYING LAPTOP           
1 42831U 17042G   23150.59728157  .00000937  00000+0  95037-4 0  9993
2 42831  97.3924 349.4043 0011935 287.7747  72.2171 14.93035022319868
PICSAT                  
1 43132U 18004X   23150.17819034  .00058598  00000+0  84929-3 0  9999
2 43132  97.3295 232.9160 0006180 183.1204 177.0014 15.55655015299746
ZHANGZHENG-1 (CSES)     
1 43194U 18015C   23150.57041954  .00009361  00000+0  42622-3 0  9999
2 43194  97.5630 286.6998 0007695  47.2921 312.8961 15.20888780295387
ICON                    
1 44628U 19068A   23150.42927116  .00002773  00000+0  22682-3 0  9992
2 44628  26.9870 197.5025 0017855 167.6742 192.4255 14.95273813198500
SALSAT                  
1 46495U 20068K   23150.40008005  .00004153  00000+0  27665-3 0  9993
2 46495  97.7689  98.2178 0015676 174.3532 185.7875 15.07579486146397
IXPE                    
1 49954U 21121A   23150.55518663  .00003714  00000+0  26851-3 0  9997
2 49954   0.2319 349.7445 0010492   3.2601   6.9812 14.93848651 80375
